[
  {
    "OBJECT_NAME": "QZS-2 (QZSS/PRN 194)",
    "OBJECT_ID": "2017-028A",
    "EPOCH": "2026-06-27T11:52:38.451936",
    "MEAN_MOTION": 1.00281278,
    "ECCENTRICITY": 0.0758985,
    "INCLINATION": 39.4116,
    "RA_OF_ASC_NODE": 243.0027,
    "ARG_OF_PERICENTER": 269.3731,
    "MEAN_ANOMALY": 83.4413,
    "EPHEMERIS_TYPE": 0,
    "CLASSIFICATION_TYPE": "U",
    "NORAD_CAT_ID": 42738,
    "ELEMENT_SET_NO": 999,
    "REV_AT_EPOCH": 773,
    "BSTAR": 0,
    "MEAN_MOTION_DOT": -1.3e-06,
    "MEAN_MOTION_DDOT": 0
  },
  {
    "OBJECT_NAME": "QZS-3 (QZSS/PRN 199)",
    "OBJECT_ID": "2017-048A",
    "EPOCH": "2026-06-27T13:21:38.683008",
    "MEAN_MOTION": 1.00271709,
    "ECCENTRICITY": 0.0002299,
    "INCLINATION": 0.0691,
    "RA_OF_ASC_NODE": 146.6373,
    "ARG_OF_PERICENTER": 306.4781,
    "MEAN_ANOMALY": 150.0087,
    "EPHEMERIS_TYPE": 0,
    "CLASSIFICATION_TYPE": "U",
    "NORAD_CAT_ID": 42917,
    "ELEMENT_SET_NO": 999,
    "REV_AT_EPOCH": 3236,
    "BSTAR": 0,
    "MEAN_MOTION_DOT": -3.36e-06,
    "MEAN_MOTION_DDOT": 0
  },
  {
    "OBJECT_NAME": "QZS-4 (QZSS/PRN 195)",
    "OBJECT_ID": "2017-062A",
    "EPOCH": "2026-06-27T07:59:15.490752",
    "MEAN_MOTION": 1.00296711,
    "ECCENTRICITY": 0.0746715,
    "INCLINATION": 40.1035,
    "RA_OF_ASC_NODE": 343.3559,
    "ARG_OF_PERICENTER": 268.2655,
    "MEAN_ANOMALY": 281.5675,
    "EPHEMERIS_TYPE": 0,
    "CLASSIFICATION_TYPE": "U",
    "NORAD_CAT_ID": 42965,
    "ELEMENT_SET_NO": 999,
    "REV_AT_EPOCH": 3190,
    "BSTAR": 0,
    "MEAN_MOTION_DOT": -3.5e-06,
    "MEAN_MOTION_DDOT": 0
  },
  {
    "OBJECT_NAME": "QZS-1R (QZSS/PRN 196)",
    "OBJECT_ID": "2021-096A",
    "EPOCH": "2026-06-26T14:51:13.875840",
    "MEAN_MOTION": 1.00253032,
    "ECCENTRICITY": 0.0755635,
    "INCLINATION": 37.4804,
    "RA_OF_ASC_NODE": 79.4425,
    "ARG_OF_PERICENTER": 271.9684,
    "MEAN_ANOMALY": 279.4688,
    "EPHEMERIS_TYPE": 0,
    "CLASSIFICATION_TYPE": "U",
    "NORAD_CAT_ID": 49336,
    "ELEMENT_SET_NO": 999,
    "REV_AT_EPOCH": 1710,
    "BSTAR": 0,
    "MEAN_MOTION_DOT": -3.12e-06,
    "MEAN_MOTION_DDOT": 0
  },
  {
    "OBJECT_NAME": "QZS-6 (QZSS/PRN 200)",
    "OBJECT_ID": "2025-023A",
    "EPOCH": "2026-06-27T11:13:37.038720",
    "MEAN_MOTION": 1.00273457,
    "ECCENTRICITY": 0.0002087,
    "INCLINATION": 0.054,
    "RA_OF_ASC_NODE": 281.4825,
    "ARG_OF_PERICENTER": 186.167,
    "MEAN_ANOMALY": 66.8515,
    "EPHEMERIS_TYPE": 0,
    "CLASSIFICATION_TYPE": "U",
    "NORAD_CAT_ID": 62876,
    "ELEMENT_SET_NO": 999,
    "REV_AT_EPOCH": 505,
    "BSTAR": 0,
    "MEAN_MOTION_DOT": -2.22e-06,
    "MEAN_MOTION_DDOT": 0
  }
]
