QZS-2 (MICHIBIKI-2)     
1 42738U 17028A   26178.49488949 -.00000130  00000+0  00000+0 0  9994
2 42738  39.4116 243.0027 0758985 269.3731  83.4413  1.00281278  7730
QZS-3 (MICHIBIKI-3)     
1 42917U 17048A   26178.55669772 -.00000336  00000+0  00000+0 0  9995
2 42917   0.0691 146.6373 0002299 306.4781 150.0087  1.00271709 32364
QZS-4 (MICHIBIKI-4)     
1 42965U 17062A   26178.33281818 -.00000350  00000+0  00000+0 0  9997
2 42965  40.1035 343.3559 0746715 268.2655 281.5675  1.00296711 31901
QZS-1R (MICHIBIKI-1R)   
1 49336U 21096A   26177.61891060 -.00000312  00000+0  00000+0 0  9992
2 49336  37.4804  79.4425 0755635 271.9684 279.4688  1.00253032 17101
QZS-6 (MICHIBIKI-6)     
1 62876U 25023A   26178.46778980 -.00000222  00000+0  00000+0 0  9999
2 62876   0.0540 281.4825 0002087 186.1670  66.8515  1.00273457  5056
